{
    "links": {
        "self": "http://www.neowsapp.com/rest/v1/neo/3560770?api_key=iIulBulltgU6a56xZRHN4H3l9WmuAYTsLGpBGhQ2"
    },
    "id": "3560770",
    "neo_reference_id": "3560770",
    "name": "(2011 FZ22)",
    "designation": "2011 FZ22",
    "nasa_jpl_url": "http://ssd.jpl.nasa.gov/sbdb.cgi?sstr=3560770",
    "absolute_magnitude_h": 23.1,
    "estimated_diameter": {
        "kilometers": {
            "estimated_diameter_min": 0.063760979,
            "estimated_diameter_max": 0.1425738833
        },
        "meters": {
            "estimated_diameter_min": 63.7609789875,
            "estimated_diameter_max": 142.5738833281
        },
        "miles": {
            "estimated_diameter_min": 0.0396192233,
            "estimated_diameter_max": 0.0885912765
        },
        "feet": {
            "estimated_diameter_min": 209.1895703015,
            "estimated_diameter_max": 467.7620993781
        }
    },
    "is_potentially_hazardous_asteroid": false,
    "close_approach_data": [
        {
            "close_approach_date": "2011-03-21",
            "close_approach_date_full": "2011-Mar-21 17:38",
            "epoch_date_close_approach": 1300729080000,
            "relative_velocity": {
                "kilometers_per_second": "31.8046220864",
                "kilometers_per_hour": "114496.639510883",
                "miles_per_hour": "71143.7591449706"
            },
            "miss_distance": {
                "astronomical": "0.0143672141",
                "lunar": "5.5888462849",
                "kilometers": "2149304.627193967",
                "miles": "1335515.9666400646"
            },
            "orbiting_body": "Earth"
        }
    ],
    "orbital_data": {
        "orbit_id": "7",
        "orbit_determination_date": "2017-04-06 08:53:58",
        "first_observation_date": "2011-03-29",
        "last_observation_date": "2011-04-02",
        "data_arc_in_days": 4,
        "observations_used": 18,
        "orbit_uncertainty": "9",
        "minimum_orbit_intersection": ".00298054",
        "jupiter_tisserand_invariant": "2.830",
        "epoch_osculation": "2455651.5",
        "eccentricity": ".8815880682856089",
        "semi_major_axis": "2.365637951719902",
        "inclination": "7.940316362616258",
        "ascending_node_longitude": "358.7427737595289",
        "orbital_period": "1328.987344287776",
        "perihelion_distance": ".2801197596000291",
        "perihelion_argument": "58.96906941797137",
        "aphelion_distance": "4.451156143839775",
        "perihelion_time": "2455602.377701739427",
        "mean_anomaly": "13.30639260773654",
        "mean_motion": ".2708829407197473",
        "equinox": "J2000",
        "orbit_class": {
            "orbit_class_type": "APO",
            "orbit_class_description": "Near-Earth asteroid orbits which cross the Earth’s orbit similar to that of 1862 Apollo",
            "orbit_class_range": "a (semi-major axis) > 1.0 AU; q (perihelion) < 1.017 AU"
        }
    },
    "is_sentry_object": false
}